OBJECT_NAME,OBJECT_ID,EPOCH,MEAN_MOTION,ECCENTRICITY,INCLINATION,RA_OF_ASC_NODE,ARG_OF_PERICENTER,MEAN_ANOMALY,EPHEMERIS_TYPE,CLASSIFICATION_TYPE,NORAD_CAT_ID,ELEMENT_SET_NO,REV_AT_EPOCH,BSTAR,MEAN_MOTION_DOT,MEAN_MOTION_DDOT
COSMOS 2251 DEB,1993-036AEU,2024-01-20T21:10:19.076736,14.45646605,.0028958,74.0545,340.6975,279.8062,79.9826,0,U,34965,999,77899,.65086E-3,.2287E-4,0
COSMOS 2251 DEB,1993-036AEW,2023-12-28T19:09:27.421056,14.38354953,.0048288,73.9026,141.5880,114.7594,245.8595,0,U,34967,999,54885,.42564E-3,.1288E-4,0
COSMOS 2251 DEB,1993-036AEX,2024-01-21T16:27:54.719136,14.57315359,.0088798,74.0397,122.3799,58.3131,302.6653,0,U,34968,999,78403,.24709E-3,.115E-4,0
COSMOS 2251 DEB,1993-036AFA,2024-01-21T18:20:22.256736,14.53287939,.0073007,73.9776,156.7477,185.2048,244.5203,0,U,34971,999,56126,.50388E-3,.2137E-4,0
COSMOS 2251 DEB,1993-036AFB,2024-01-20T20:02:19.954752,14.54422239,.0050613,73.9956,301.4126,260.3624,157.4938,0,U,34972,999,77528,.20769E-2,.8968E-4,0
COSMOS 2251 DEB,1993-036AFN,2024-01-18T21:18:27.768960,14.38990097,.0018302,74.0455,94.3328,329.4689,30.5399,0,U,34990,999,77353,.71762E-3,.2193E-4,0
COSMOS 2251 DEB,1993-036AFP,2024-01-17T17:47:24.773280,14.91259882,.001043,74.0299,160.5319,72.8115,287.4208,0,U,34991,999,78303,.74954E-2,.75462E-3,0
COSMOS 2251 DEB,1993-036AFV,2024-01-10T10:58:08.035680,14.34187869,.0113868,73.8843,181.5273,300.7829,58.2150,0,U,34997,999,60637,.14766E-2,.4424E-4,0
COSMOS 2251 DEB,1993-036AGB,2024-01-22T02:55:56.380512,14.55447341,.0014037,74.0083,295.0157,245.9632,114.0062,0,U,35014,999,61222,.20443E-2,.8884E-4,0
COSMOS 2251 DEB,1993-036AGC,2024-01-21T20:43:42.178368,14.39182400,.0081153,73.9522,85.0151,107.9476,14.3298,0,U,35015,999,77337,.10677E-2,.3412E-4,0
COSMOS 2251 DEB,1993-036AGD,2024-01-21T14:54:42.179328,14.32069418,.0118428,73.9321,126.8652,192.4772,230.9734,0,U,35016,999,76878,.10457E-2,.301E-4,0
COSMOS 2251 DEB,1993-036AGF,2024-01-21T19:49:03.136800,13.63266055,.0358669,73.9826,164.3332,214.0945,143.6661,0,U,35018,999,73756,.39382E-2,.4761E-4,0
COSMOS 2251 DEB,1993-036AGH,2024-01-21T20:02:52.214784,14.60392067,.0095125,74.0497,80.0888,12.1486,348.1940,0,U,35020,999,78705,.15468E-3,.765E-5,0
COSMOS 2251 DEB,1993-036AGK,2024-01-15T20:26:33.498240,14.55207208,.0052542,74.0251,208.7854,220.9585,138.7627,0,U,35022,999,78358,.80415E-3,.3515E-4,0
COSMOS 2251 DEB,1993-036AGN,2024-01-20T06:37:36.706656,14.66229942,.0092087,73.9427,332.9320,45.2340,315.6272,0,U,35025,999,78470,.85279E-3,.4973E-4,0
COSMOS 2251 DEB,1993-036AGP,2024-01-17T04:18:20.179008,14.52766555,.0083763,74.0452,191.0542,121.6220,357.7526,0,U,35026,999,78039,.15661E-3,.644E-5,0
COSMOS 2251 DEB,1993-036AGV,2024-01-21T14:27:45.063360,14.48716714,.0079862,73.8551,248.2009,235.6783,153.5006,0,U,35032,999,77629,.12304E-2,.4802E-4,0
COSMOS 2251 DEB,1993-036AGW,2024-01-20T08:18:43.878816,14.44396596,.0018474,74.0304,33.0009,301.8634,58.0725,0,U,35033,999,55906,.1167E-2,.4005E-4,0
