0 COSMOS 2251 DEB
1 34965U 93036AEU 24020.88216524  .00002287  00000-0  65086-3 0  9999
2 34965  74.0545 340.6975 0028958 279.8062  79.9826 14.45646605778996
0 COSMOS 2251 DEB
1 34967U 93036AEW 23362.79823404  .00001288  00000-0  42564-3 0  9996
2 34967  73.9026 141.5880 0048288 114.7594 245.8595 14.38354953548859
0 COSMOS 2251 DEB
1 34968U 93036AEX 24021.68604999  .00001150  00000-0  24709-3 0  9993
2 34968  74.0397 122.3799 0088798  58.3131 302.6653 14.57315359784036
0 COSMOS 2251 DEB
1 34971U 93036AFA 24021.76414649  .00002137  00000-0  50388-3 0  9995
2 34971  73.9776 156.7477 0073007 185.2048 244.5203 14.53287939561268
0 COSMOS 2251 DEB
1 34972U 93036AFB 24020.83495318  .00008968  00000-0  20769-2 0  9992
2 34972  73.9956 301.4126 0050613 260.3624 157.4938 14.54422239775283
0 COSMOS 2251 DEB
1 34990U 93036AFN 24018.88782140  .00002193  00000-0  71762-3 0  9990
2 34990  74.0455  94.3328 0018302 329.4689  30.5399 14.38990097773530
0 COSMOS 2251 DEB
1 34991U 93036AFP 24017.74125895  .00075462  00000-0  74954-2 0  9997
2 34991  74.0299 160.5319 0010430  72.8115 287.4208 14.91259882783037
0 COSMOS 2251 DEB
1 34997U 93036AFV 24010.45703745  .00004424  00000-0  14766-2 0  9995
2 34997  73.8843 181.5273 0113868 300.7829  58.2150 14.34187869606374
0 COSMOS 2251 DEB
1 35014U 93036AGB 24022.12218033  .00008884  00000-0  20443-2 0  9997
2 35014  74.0083 295.0157 0014037 245.9632 114.0062 14.55447341780032
0 COSMOS 2251 DEB
1 35015U 93036AGC 24021.86368262  .00003412  00000-0  10677-2 0  9998
2 35015  73.9522  85.0151 0081153 107.9476  14.3298 14.39182400773372
0 COSMOS 2251 DEB
1 35016U 93036AGD 24021.62132152  .00003010  00000-0  10457-2 0  9990
2 35016  73.9321 126.8652 0118428 192.4772 230.9734 14.32069418768780
0 COSMOS 2251 DEB
1 35018U 93036AGF 24021.82573075  .00004761  00000-0  39382-2 0  9999
2 35018  73.9826 164.3332 0358669 214.0945 143.6661 13.63266055737560
0 COSMOS 2251 DEB
1 35020U 93036AGH 24021.83532656  .00000765  00000-0  15468-3 0  9993
2 35020  74.0497  80.0888 0095125  12.1486 348.1940 14.60392067787053
0 COSMOS 2251 DEB
1 35022U 93036AGK 24015.85177660  .00003515  00000-0  80415-3 0  9990
2 35022  74.0251 208.7854 0052542 220.9585 138.7627 14.55207208783585
0 COSMOS 2251 DEB
1 35025U 93036AGN 24020.27611929  .00004973  00000-0  85279-3 0  9998
2 35025  73.9427 332.9320 0092087  45.2340 315.6272 14.66229942784702
0 COSMOS 2251 DEB
1 35026U 93036AGP 24017.17940022  .00000644  00000-0  15661-3 0  9992
2 35026  74.0452 191.0542 0083763 121.6220 357.7526 14.52766555780391
0 COSMOS 2251 DEB
1 35032U 93036AGV 24021.60260490  .00004802  00000-0  12304-2 0  9996
2 35032  73.8551 248.2009 0079862 235.6783 153.5006 14.48716714776299
0 COSMOS 2251 DEB
1 35033U 93036AGW 24020.34634119  .00004005  00000-0  11670-2 0  9990
2 35033  74.0304  33.0009 0018474 301.8634  58.0725 14.44396596559061
